STARLINK-6167           
1 57126U 23090AB  24305.07578445 -.00000846  00000+0 -47622-4 0  9993
2 57126  43.0017  81.9776 0000427 276.7857  83.2936 15.02524705 76017
STARLINK-6165           
1 57127U 23090AC  24305.73056367  .00001837  00000+0  15100-3 0  9995
2 57127  43.0027  78.2900 0001393 257.9246 102.1440 15.02536808 75920
STARLINK-6163           
1 57128U 23090AD  24305.80369937  .00000123  00000+0  24144-4 0  9990
2 57128  43.0019  77.9780 0001457 280.9787  79.0892 15.02544793 75937
STARLINK-6170           
1 57129U 23090AE  24305.66890003  .00000402  00000+0  44870-4 0  9996
2 57129  43.0030  66.5308 0001430 262.3366  97.7314 15.02533076 76051
STARLINK-6172           
1 57130U 23090AF  24305.66515636 -.00014790  00000+0 -10800-2 0  9995
2 57130  43.0015  78.6595 0001169 292.4659  67.6060 15.02609586 75914
STARLINK-6162           
1 57131U 23090AG  24305.53150753 -.00000819  00000+0 -45588-4 0  9997
2 57131  43.0013  67.2209 0001612 290.6645  69.4024 15.02528507 76034
STARLINK-6128           
1 57132U 23090AH  24305.65853069 -.00001599  00000+0 -10327-3 0  9999
2 57132  43.0019  78.6090 0001038 255.0577 105.0150 15.02546097 75913
STARLINK-6143           
1 57133U 23090AJ  24305.65114665 -.00000621  00000+0 -30932-4 0  9992
2 57133  43.0048  66.3968 0001510 273.8400  86.2269 15.02529781 76050
STARLINK-6133           
1 57134U 23090AK  24305.66555762  .00002540  00000+0  20296-3 0  9992
2 57134  43.0045  66.5054 0001340 284.5416  75.5278 15.02550169 76058
STARLINK-6127           
1 57135U 23090AL  24305.64114586  .00000517  00000+0  53348-4 0  9993
2 57135  43.0020  66.3216 0001048 271.5583  88.5139 15.02541731 76051
STARLINK-6112           
1 57136U 23090AM  24305.66223546  .00005831  00000+0  44615-3 0  9993
2 57136  43.0025  66.4805 0001338 273.3242  86.7447 15.02551452 76071
STARLINK-5347           
1 57137U 23090AN  24305.64892122 -.00000975  00000+0 -57114-4 0  9999
2 57137  43.0037  66.3743 0001432 269.7645  90.3033 15.02538073 76050
STARLINK-5336           
1 57138U 23090AP  24305.39522056  .00001043  00000+0  92254-4 0  9997
2 57138  43.0025  67.9168 0001224 285.2711  74.7996 15.02534729 75060
STARLINK-5355           
1 57139U 23090AQ  24305.71095358  .00001813  00000+0  14923-3 0  9995
2 57139  43.0025  65.9869 0000522 277.4061  82.6722 15.02537814 76062
STARLINK-5357           
1 57141U 23090AS  24305.63892695  .00006070  00000+0  46386-3 0  9996
2 57141  43.0007  66.3032 0000847 260.8454  99.2292 15.02546971 76053
STARLINK-5361           
1 57142U 23090AT  24305.70096969  .00000703  00000+0  67119-4 0  9990
2 57142  43.0021  65.9076 0001126 275.9345  84.1369 15.02530408 76067
STARLINK-5358           
1 57143U 23090AU  24305.69764538  .00000552  00000+0  55964-4 0  9990
2 57143  43.0039  65.8844 0001162 264.0994  95.9716 15.02532978 76068
STARLINK-5150           
1 57144U 23090AV  24305.37634948  .00001013  00000+0  90032-4 0  9995
2 57144  43.0038  67.7734 0001270 278.1446  81.9253 15.02534415 76019
STARLINK-5768           
1 57145U 23090AW  24305.68875774 -.00003057  00000+0 -21137-3 0  9995
2 57145  43.0021  65.8141 0001461 260.1820  99.8857 15.02521626 76065
STARLINK-5791           
1 57146U 23090AX  24305.62895136  .00000056  00000+0  19209-4 0  9996
2 57146  43.0048  66.2292 0001631 275.4438  84.6218 15.02523064 76050
STARLINK-5765           
1 57147U 23090AY  24305.68432034 -.00000309  00000+0 -77943-5 0  9990
2 57147  43.0024  65.7822 0001161 277.2527  82.8183 15.02536636 76257
STARLINK-5788           
1 57148U 23090AZ  24305.61118924 -.00000382  00000+0 -13196-4 0  9993
2 57148  43.0076  66.0945 0001688 278.9253  81.1399 15.02526870 76051
STARLINK-5778           
1 57149U 23090BA  24306.22995957  .00000137  00000+0  25234-4 0  9993
2 57149  43.0035  36.9546 0001561 258.5096 101.5571 15.02553072 75501
STARLINK-5780           
1 57150U 23090BB  24305.69208206 -.00002276  00000+0 -15340-3 0  9993
2 57150  43.0014  65.8390 0000792 239.8479 120.2285 15.02548724 76251
STARLINK-5776           
1 57151U 23090BC  24305.69098367  .00004543  00000+0  35104-3 0  9996
2 57151  42.9998  65.8319 0000714 267.6992  92.3768 15.02545132 76250
STARLINK-6164           
1 57152U 23090BD  24305.69431221  .00000134  00000+0  24962-4 0  9990
2 57152  43.0030  65.8586 0000978 280.2955  79.7777 15.02531275 76250
STARLINK-5879           
1 57153U 23090BE  24305.65138855  .00003830  00000+0  29839-3 0  9997
2 57153  43.0003  53.3790 0000848 287.1226  72.9523 15.02539580 75893
STARLINK-6106           
1 57154U 23090BF  24305.61894898  .00000140  00000+0  25406-4 0  9998
2 57154  43.0029  66.1521 0001162 280.3346  79.7366 15.02536435 76240
STARLINK-6108           
1 57155U 23090BG  24305.60452748  .00001235  00000+0  10655-3 0  9997
2 57155  43.0060  66.0404 0001973 264.2798  95.7820 15.02525642 76248
STARLINK-6137           
1 57156U 23090BH  24305.67433138  .00000333  00000+0  39730-4 0  9991
2 57156  43.0041  65.7060 0000948 258.2860 101.7876 15.02533944 76250
STARLINK-5525           
1 57218U 23094A   24305.74812294  .00001422  00000+0  12034-3 0  9993
2 57218  43.0035 194.6776 0000937 298.3814  61.6934 15.02538164 72816
STARLINK-5520           
1 57219U 23094B   24306.07718902  .00002336  00000+0  18797-3 0  9999
2 57219  43.0045 192.8440 0001278 259.3599 100.7099 15.02529502 73041
STARLINK-5880           
1 57220U 23094C   24305.39686765  .00007290  00000+0  55444-3 0  9990
2 57220  43.0064 196.3392 0001711 245.5778 114.4886 15.02519026 72941
STARLINK-5875           
1 57221U 23094D   24305.14427751  .00001102  00000+0  96660-4 0  9994
2 57221  43.0025 197.8851 0001666 263.9471  96.1181 15.02531379 72723
STARLINK-5870           
1 57222U 23094E   24305.40352575  .00000227  00000+0  31871-4 0  9995
2 57222  43.0000 196.3923 0001631 260.5920  99.4738 15.02535097 73394
STARLINK-5519           
1 57223U 23094F   24305.73924938 -.00001134  00000+0 -68940-4 0  9997
2 57223  42.9985 194.6114 0001167 266.1760  93.8948 15.02525786 72817
STARLINK-5983           
1 57224U 23094G   24305.86555098  .00015734  00000+0  11761-2 0  9995
2 57224  43.0016 193.8370 0001539 272.4821  87.5845 15.02571989 73016
STARLINK-6294           
1 57225U 23094H   24306.07385400  .00002398  00000+0  19256-3 0  9998
2 57225  43.0014 192.8158 0000729 269.4557  90.6202 15.02531565 73108
STARLINK-6350           
1 57226U 23094J   24306.05387546  .00006406  00000+0  48876-3 0  9994
2 57226  43.0029 192.6688 0001328 277.1462  82.9229 15.02542525 73042
STARLINK-5996           
1 57227U 23094K   24306.12478578 -.00006324  00000+0 -45331-3 0  9993
2 57227  43.0034 192.3412 0001366 277.4827  82.5860 15.02553448 73055
STARLINK-6230           
1 57228U 23094L   24306.05055531 -.00000745  00000+0 -40085-4 0  9999
2 57228  43.0033 192.6422 0000358 324.4100  35.6718 15.02528580 73045
STARLINK-6233           
1 57229U 23094M   24306.05720501 -.00000593  00000+0 -28865-4 0  9999
2 57229  43.0024 192.6936 0001245 283.7509  76.3195 15.02533739 73045
STARLINK-6250           
1 57230U 23094N   24306.04500587  .00008289  00000+0  62821-3 0  9997
2 57230  43.0044 192.5993 0001310 266.8365  93.2327 15.02519986 73049
STARLINK-5840           
1 57231U 23094P   24306.08818784 -.00002442  00000+0 -16589-3 0  9990
2 57231  43.0012 192.0615 0001127 253.7828 106.2890 15.02511545 73050
STARLINK-5872           
1 57232U 23094Q   24306.08705259  .00001643  00000+0  13664-3 0  9994
2 57232  42.9997 192.0505 0001728 269.8397  90.2248 15.02541238 73113
STARLINK-5866           
1 57233U 23094R   24305.09765897  .00000664  00000+0  64247-4 0  9995
2 57233  43.0022 197.5339 0001486 263.4429  96.6244 15.02544575 72726
STARLINK-6368           
1 57234U 23094S   24305.88540082  .00001186  00000+0  10282-3 0  9999
2 57234  43.0022 193.1230 0001228 252.8226 107.2482 15.02534897 72842
STARLINK-6360           
1 57235U 23094T   24305.09987693  .00002102  00000+0  17063-3 0  9999
2 57235  43.0026 197.5495 0001526 253.7320 106.3354 15.02539406 72720
STARLINK-6315           
1 57236U 23094U   24305.69300969 -.00004736  00000+0 -33596-3 0  9997
2 57236  42.9994 182.1214 0001322 253.9226 106.1471 15.02517268 72958
STARLINK-6365           
1 57237U 23094V   24306.09149300 -.00000730  00000+0 -38968-4 0  9992
2 57237  43.0016 192.0887 0002358 274.0577  85.9996 15.02532952 73050
STARLINK-6334           
1 57238U 23094W   24305.35284731  .00002296  00000+0  18501-3 0  9996
2 57238  43.0033 183.8606 0001263 249.3485 110.7222 15.02529864 73084
STARLINK-6330           
1 57239U 23094X   24306.08372060  .00002040  00000+0  16607-3 0  9993
2 57239  43.0038 192.0317 0002029 266.7754  93.2856 15.02537141 73056
STARLINK-6351           
1 57240U 23094Y   24305.07805410  .00018237  00000+0  13620-2 0  9999
2 57240  43.0025 185.2410 0000957 259.5288 100.5446 15.02524376 72863
STARLINK-6349           
1 57241U 23094Z   24306.02206690 -.00000209  00000+0 -43446-6 0  9996
2 57241  43.0024 180.2833 0000864 299.6777  60.3979 15.02533033 73182
STARLINK-6306           
1 57242U 23094AA  24306.01873630 -.00000837  00000+0 -46904-4 0  9997
2 57242  43.0026 180.2596 0000943 301.0137  59.0613 15.02529926 73183
STARLINK-6346           
1 57243U 23094AB  24306.08743823 -.00000969  00000+0 -56653-4 0  9993
2 57243  43.0011 179.9155 0001103  30.1076 329.9830 15.02531657 73190
STARLINK-5610           
1 57244U 23094AC  24306.01096065  .00007695  00000+0  58400-3 0  9998
2 57244  43.0017 180.1978 0001493 266.5889  93.4783 15.02543585 73219
STARLINK-5587           
1 57245U 23094AD  24306.01429476  .00000634  00000+0  61977-4 0  9995
2 57245  43.0046 180.2230 0001170 268.7552  91.3156 15.02533298 73184
STARLINK-5049           
1 57246U 23094AE  24305.71952286  .00000898  00000+0  81536-4 0  9997
2 57246  42.9974 181.4492 0001276 263.2303  96.8394 15.02528929 72961
